0 DELTA 1 R/B
1 03094U 68002B   13282.49820924 -.00000041  00000-0  11583-3 0  1142
2 03094 105.8114 102.2303 0313627 024.3530 351.4936 12.85007374145129
0 DELTA 1 R/B
1 03094U 68002B   13286.71231605 -.00000074  00000-0  46917-5 0  1162
2 03094 105.8106 108.1577 0313782 017.4962 046.0705 12.85008107145667
0 DELTA 1 R/B
1 03094U 68002B   13288.73742256 -.00000125  00000-0 -16115-3 0  1179
2 03094 105.8106 111.0061 0313791 014.2052 054.2675 12.85008786145922
0 DELTA 1 R/B
1 03094U 68002B   13290.76182015  .00000007  00000-0  27641-3 0  1180
2 03094 105.8107 113.8535 0313827 010.9167 059.1977 12.85007468146183
0 DELTA 1 R/B
1 03094U 68002B   13293.18204936 -.00000024  00000-0  17188-3 0  1192
2 03094 105.8107 117.2576 0313888 006.9828 095.2463 12.85007865146498
0 DELTA 1 R/B
1 03094U 68002B   13295.51157414 -.00000125  00000-0 -16294-3 0  1201
2 03094 105.8106 120.5340 0313959 003.1986 071.6873 12.85009161146793
